STARLINK-36986
1 68207U 26053A   26105.83335647 -.02379224  00000+0 -56169-1 0  9990
2 68207  97.2845 341.7616 0001020 106.8401 305.0786 15.45273036  5988
STARLINK-37009
1 68208U 26053B   26105.83335647 -.02260934  00000+0 -58623-1 0  9995
2 68208  97.2839 341.7870 0002280  99.6885 352.4194 15.42325086  5987
STARLINK-36948
1 68209U 26053C   26105.83335647 -.02266415  00000+0 -58927-1 0  9993
2 68209  97.2855 341.7933 0002229  93.2789  14.4530 15.42251682  5880
STARLINK-37119
1 68210U 26053D   26105.83335647 -.02265201  00000+0 -58374-1 0  9993
2 68210  97.2855 341.7993 0002177  98.1738  22.5932 15.42514859  5983
STARLINK-37120
1 68211U 26053E   26105.83335647 -.02266279  00000+0 -57674-1 0  9992
2 68211  97.2849 341.8040 0002039 105.2422  27.5585 15.42889749  5968
STARLINK-37117
1 68212U 26053F   26105.83335647 -.02273596  00000+0 -58020-1 0  9999
2 68212  97.2855 341.8116 0002425  93.5625  54.9270 15.42815229  5982
STARLINK-37116
1 68213U 26053G   26105.83335647 -.02218594  00000+0 -56211-1 0  9997
2 68213  97.2845 341.8115 0002592 103.5865  53.9152 15.43536144  5989
STARLINK-35854
1 68214U 26053H   26105.83335647 -.02420369  00000+0 -54922-1 0  9990
2 68214  97.2854 341.8397 0002118  80.1511 134.6375 15.46471582  5750
STARLINK-36272
1 68215U 26053J   26105.57513904  .00033764  00000+0  61914-3 0  9992
2 68215  97.2840 341.3232 0002077 107.9324 252.2154 15.49219081  5831
STARLINK-37014
1 68216U 26053K   26105.83335647 -.02214075  00000+0 -55470-1 0  9996
2 68216  97.2842 341.8297 0002426 104.3472  95.3571 15.43859746  5980
STARLINK-37011
1 68217U 26053L   26105.83335647 -.02239335  00000+0 -55638-1 0  9999
2 68217  97.2848 341.8227 0002013 103.3034  79.0598 15.44154484  5981
STARLINK-37108
1 68218U 26053M   26105.83335647 -.02225651  00000+0 -54801-1 0  9997
2 68218  97.2850 341.8403 0002277 111.3721 113.5799 15.44391244  5989
STARLINK-37106
1 68219U 26053N   26105.83335647 -.02213504  00000+0 -53672-1 0  9997
2 68219  97.2838 341.8438 0001801 102.4323 131.0059 15.44823133  5986
STARLINK-37030
1 68220U 26053P   26105.83335647 -.00017410  00000+0 -31903-3 0  9990
2 68220  97.2848 341.7344 0001591  88.3080 258.9791 15.49199369  5986
STARLINK-37012
1 68221U 26053Q   26105.83335647 -.02221711  00000+0 -53473-1 0  9998
2 68221  97.2844 341.8326 0002290 112.2119  94.0224 15.45048919  5981
STARLINK-37110
1 68222U 26053R   26105.83335647 -.02417582  00000+0 -56345-1 0  9993
2 68222  97.2838 341.8551 0002248  98.1124 172.4431 15.45692349  5989
