[{"OBJECT_NAME":"STARLINK-36986","OBJECT_ID":"2026-053A","EPOCH":"2026-04-15T20:00:01.999008","MEAN_MOTION":15.45273036,"ECCENTRICITY":0.000102,"INCLINATION":97.2845,"RA_OF_ASC_NODE":341.7616,"ARG_OF_PERICENTER":106.8401,"MEAN_ANOMALY":305.0786,"EPHEMERIS_TYPE":0,"CLASSIFICATION_TYPE":"U","NORAD_CAT_ID":68207,"ELEMENT_SET_NO":999,"REV_AT_EPOCH":598,"BSTAR":-0.056169,"MEAN_MOTION_DOT":-0.02379224,"MEAN_MOTION_DDOT":0},{"OBJECT_NAME":"STARLINK-37009","OBJECT_ID":"2026-053B","EPOCH":"2026-04-15T20:00:01.999008","MEAN_MOTION":15.42325086,"ECCENTRICITY":0.000228,"INCLINATION":97.2839,"RA_OF_ASC_NODE":341.787,"ARG_OF_PERICENTER":99.6885,"MEAN_ANOMALY":352.4194,"EPHEMERIS_TYPE":0,"CLASSIFICATION_TYPE":"U","NORAD_CAT_ID":68208,"ELEMENT_SET_NO":999,"REV_AT_EPOCH":598,"BSTAR":-0.058623,"MEAN_MOTION_DOT":-0.02260934,"MEAN_MOTION_DDOT":0},{"OBJECT_NAME":"STARLINK-36948","OBJECT_ID":"2026-053C","EPOCH":"2026-04-15T20:00:01.999008","MEAN_MOTION":15.42251682,"ECCENTRICITY":0.0002229,"INCLINATION":97.2855,"RA_OF_ASC_NODE":341.7933,"ARG_OF_PERICENTER":93.2789,"MEAN_ANOMALY":14.453,"EPHEMERIS_TYPE":0,"CLASSIFICATION_TYPE":"U","NORAD_CAT_ID":68209,"ELEMENT_SET_NO":999,"REV_AT_EPOCH":588,"BSTAR":-0.058927,"MEAN_MOTION_DOT":-0.02266415,"MEAN_MOTION_DDOT":0},{"OBJECT_NAME":"STARLINK-37119","OBJECT_ID":"2026-053D","EPOCH":"2026-04-15T20:00:01.999008","MEAN_MOTION":15.42514859,"ECCENTRICITY":0.0002177,"INCLINATION":97.2855,"RA_OF_ASC_NODE":341.7993,"ARG_OF_PERICENTER":98.1738,"MEAN_ANOMALY":22.5932,"EPHEMERIS_TYPE":0,"CLASSIFICATION_TYPE":"U","NORAD_CAT_ID":68210,"ELEMENT_SET_NO":999,"REV_AT_EPOCH":598,"BSTAR":-0.058374,"MEAN_MOTION_DOT":-0.02265201,"MEAN_MOTION_DDOT":0},{"OBJECT_NAME":"STARLINK-37120","OBJECT_ID":"2026-053E","EPOCH":"2026-04-15T20:00:01.999008","MEAN_MOTION":15.42889749,"ECCENTRICITY":0.0002039,"INCLINATION":97.2849,"RA_OF_ASC_NODE":341.804,"ARG_OF_PERICENTER":105.2422,"MEAN_ANOMALY":27.5585,"EPHEMERIS_TYPE":0,"CLASSIFICATION_TYPE":"U","NORAD_CAT_ID":68211,"ELEMENT_SET_NO":999,"REV_AT_EPOCH":596,"BSTAR":-0.057674,"MEAN_MOTION_DOT":-0.02266279,"MEAN_MOTION_DDOT":0},{"OBJECT_NAME":"STARLINK-37117","OBJECT_ID":"2026-053F","EPOCH":"2026-04-15T20:00:01.999008","MEAN_MOTION":15.42815229,"ECCENTRICITY":0.0002425,"INCLINATION":97.2855,"RA_OF_ASC_NODE":341.8116,"ARG_OF_PERICENTER":93.5625,"MEAN_ANOMALY":54.927,"EPHEMERIS_TYPE":0,"CLASSIFICATION_TYPE":"U","NORAD_CAT_ID":68212,"ELEMENT_SET_NO":999,"REV_AT_EPOCH":598,"BSTAR":-0.05802,"MEAN_MOTION_DOT":-0.02273596,"MEAN_MOTION_DDOT":0},{"OBJECT_NAME":"STARLINK-37116","OBJECT_ID":"2026-053G","EPOCH":"2026-04-15T20:00:01.999008","MEAN_MOTION":15.43536144,"ECCENTRICITY":0.0002592,"INCLINATION":97.2845,"RA_OF_ASC_NODE":341.8115,"ARG_OF_PERICENTER":103.5865,"MEAN_ANOMALY":53.9152,"EPHEMERIS_TYPE":0,"CLASSIFICATION_TYPE":"U","NORAD_CAT_ID":68213,"ELEMENT_SET_NO":999,"REV_AT_EPOCH":598,"BSTAR":-0.056211,"MEAN_MOTION_DOT":-0.02218594,"MEAN_MOTION_DDOT":0},{"OBJECT_NAME":"STARLINK-35854","OBJECT_ID":"2026-053H","EPOCH":"2026-04-15T20:00:01.999008","MEAN_MOTION":15.46471582,"ECCENTRICITY":0.0002118,"INCLINATION":97.2854,"RA_OF_ASC_NODE":341.8397,"ARG_OF_PERICENTER":80.1511,"MEAN_ANOMALY":134.6375,"EPHEMERIS_TYPE":0,"CLASSIFICATION_TYPE":"U","NORAD_CAT_ID":68214,"ELEMENT_SET_NO":999,"REV_AT_EPOCH":575,"BSTAR":-0.054922,"MEAN_MOTION_DOT":-0.02420369,"MEAN_MOTION_DDOT":0},{"OBJECT_NAME":"STARLINK-36272","OBJECT_ID":"2026-053J","EPOCH":"2026-04-15T13:48:12.013056","MEAN_MOTION":15.49219081,"ECCENTRICITY":0.0002077,"INCLINATION":97.284,"RA_OF_ASC_NODE":341.3232,"ARG_OF_PERICENTER":107.9324,"MEAN_ANOMALY":252.2154,"EPHEMERIS_TYPE":0,"CLASSIFICATION_TYPE":"U","NORAD_CAT_ID":68215,"ELEMENT_SET_NO":999,"REV_AT_EPOCH":583,"BSTAR":0.00061914,"MEAN_MOTION_DOT":0.00033764,"MEAN_MOTION_DDOT":0},{"OBJECT_NAME":"STARLINK-37014","OBJECT_ID":"2026-053K","EPOCH":"2026-04-15T20:00:01.999008","MEAN_MOTION":15.43859746,"ECCENTRICITY":0.0002426,"INCLINATION":97.2842,"RA_OF_ASC_NODE":341.8297,"ARG_OF_PERICENTER":104.3472,"MEAN_ANOMALY":95.3571,"EPHEMERIS_TYPE":0,"CLASSIFICATION_TYPE":"U","NORAD_CAT_ID":68216,"ELEMENT_SET_NO":999,"REV_AT_EPOCH":598,"BSTAR":-0.05547,"MEAN_MOTION_DOT":-0.02214075,"MEAN_MOTION_DDOT":0},{"OBJECT_NAME":"STARLINK-37011","OBJECT_ID":"2026-053L","EPOCH":"2026-04-15T20:00:01.999008","MEAN_MOTION":15.44154484,"ECCENTRICITY":0.0002013,"INCLINATION":97.2848,"RA_OF_ASC_NODE":341.8227,"ARG_OF_PERICENTER":103.3034,"MEAN_ANOMALY":79.0598,"EPHEMERIS_TYPE":0,"CLASSIFICATION_TYPE":"U","NORAD_CAT_ID":68217,"ELEMENT_SET_NO":999,"REV_AT_EPOCH":598,"BSTAR":-0.055638,"MEAN_MOTION_DOT":-0.02239335,"MEAN_MOTION_DDOT":0},{"OBJECT_NAME":"STARLINK-37108","OBJECT_ID":"2026-053M","EPOCH":"2026-04-15T20:00:01.999008","MEAN_MOTION":15.44391244,"ECCENTRICITY":0.0002277,"INCLINATION":97.285,"RA_OF_ASC_NODE":341.8403,"ARG_OF_PERICENTER":111.3721,"MEAN_ANOMALY":113.5799,"EPHEMERIS_TYPE":0,"CLASSIFICATION_TYPE":"U","NORAD_CAT_ID":68218,"ELEMENT_SET_NO":999,"REV_AT_EPOCH":598,"BSTAR":-0.054801,"MEAN_MOTION_DOT":-0.02225651,"MEAN_MOTION_DDOT":0},{"OBJECT_NAME":"STARLINK-37106","OBJECT_ID":"2026-053N","EPOCH":"2026-04-15T20:00:01.999008","MEAN_MOTION":15.44823133,"ECCENTRICITY":0.0001801,"INCLINATION":97.2838,"RA_OF_ASC_NODE":341.8438,"ARG_OF_PERICENTER":102.4323,"MEAN_ANOMALY":131.0059,"EPHEMERIS_TYPE":0,"CLASSIFICATION_TYPE":"U","NORAD_CAT_ID":68219,"ELEMENT_SET_NO":999,"REV_AT_EPOCH":598,"BSTAR":-0.053672,"MEAN_MOTION_DOT":-0.02213504,"MEAN_MOTION_DDOT":0},{"OBJECT_NAME":"STARLINK-37030","OBJECT_ID":"2026-053P","EPOCH":"2026-04-15T20:00:01.999008","MEAN_MOTION":15.49199369,"ECCENTRICITY":0.0001591,"INCLINATION":97.2848,"RA_OF_ASC_NODE":341.7344,"ARG_OF_PERICENTER":88.308,"MEAN_ANOMALY":258.9791,"EPHEMERIS_TYPE":0,"CLASSIFICATION_TYPE":"U","NORAD_CAT_ID":68220,"ELEMENT_SET_NO":999,"REV_AT_EPOCH":598,"BSTAR":-0.00031903,"MEAN_MOTION_DOT":-0.0001741,"MEAN_MOTION_DDOT":0},{"OBJECT_NAME":"STARLINK-37012","OBJECT_ID":"2026-053Q","EPOCH":"2026-04-15T20:00:01.999008","MEAN_MOTION":15.45048919,"ECCENTRICITY":0.000229,"INCLINATION":97.2844,"RA_OF_ASC_NODE":341.8326,"ARG_OF_PERICENTER":112.2119,"MEAN_ANOMALY":94.0224,"EPHEMERIS_TYPE":0,"CLASSIFICATION_TYPE":"U","NORAD_CAT_ID":68221,"ELEMENT_SET_NO":999,"REV_AT_EPOCH":598,"BSTAR":-0.053473,"MEAN_MOTION_DOT":-0.02221711,"MEAN_MOTION_DDOT":0},{"OBJECT_NAME":"STARLINK-37110","OBJECT_ID":"2026-053R","EPOCH":"2026-04-15T20:00:01.999008","MEAN_MOTION":15.45692349,"ECCENTRICITY":0.0002248,"INCLINATION":97.2838,"RA_OF_ASC_NODE":341.8551,"ARG_OF_PERICENTER":98.1124,"MEAN_ANOMALY":172.4431,"EPHEMERIS_TYPE":0,"CLASSIFICATION_TYPE":"U","NORAD_CAT_ID":68222,"ELEMENT_SET_NO":999,"REV_AT_EPOCH":598,"BSTAR":-0.056345,"MEAN_MOTION_DOT":-0.02417582,"MEAN_MOTION_DDOT":0}]
